[{"OBJECT_NAME":"OBJECT J","OBJECT_ID":"2023-085J","EPOCH":"2026-03-09T22:47:59.920512","MEAN_MOTION":15.31507187,"ECCENTRICITY":0.00067028,"INCLINATION":97.4828,"RA_OF_ASC_NODE":180.1819,"ARG_OF_PERICENTER":41.7877,"MEAN_ANOMALY":318.3875,"EPHEMERIS_TYPE":0,"CLASSIFICATION_TYPE":"U","NORAD_CAT_ID":57012,"ELEMENT_SET_NO":999,"REV_AT_EPOCH":15156,"BSTAR":0.00064525349,"MEAN_MOTION_DOT":0.00019595,"MEAN_MOTION_DDOT":0},{"OBJECT_NAME":"STARLINK-31708","OBJECT_ID":"2024-065U","EPOCH":"2026-03-09T21:22:13.929600","MEAN_MOTION":15.30185949,"ECCENTRICITY":0.00011779,"INCLINATION":53.1597,"RA_OF_ASC_NODE":280.4878,"ARG_OF_PERICENTER":103.4004,"MEAN_ANOMALY":256.7128,"EPHEMERIS_TYPE":0,"CLASSIFICATION_TYPE":"U","NORAD_CAT_ID":59439,"ELEMENT_SET_NO":999,"REV_AT_EPOCH":10896,"BSTAR":9.127282e-6,"MEAN_MOTION_DOT":-8.9e-7,"MEAN_MOTION_DDOT":0}]
